1 36585U 10022A   20271.91027542 -.00000004  00000-0  00000+0 0  9998
2 36585  55.2377 292.7998 0089484  52.5151 310.0729  2.00556987 75709
1 36585U 10022A   20271.91027542 -.00000004  00000-0  00000-0 0  9999
2 36585  55.2377 292.7998 0089484  52.5151 310.0729  2.00556987 75709
1 36585U 10022A   20273.14864517 -.00000012  00000-0  00000-0 0  9996
2 36585  55.2368 292.7500 0089522  52.4935 124.2309  2.00557071 75726
1 36585U 10022A   20274.47706101 -.00000020  00000-0  00000-0 0  9996
2 36585  55.2360 292.6966 0089561  52.4820   3.3948  2.00557165 75752
1 36585U 10022A   20274.47706101 -.00000020  00000-0  00000-0 0  9996
2 36585  55.2360 292.6966 0089561  52.4820   3.3948  2.00557165 75763
1 36585U 10022A   20275.65033418 -.00000024  00000-0  00000-0 0  9995
2 36585  55.2352 292.6495 0089592  52.4809 130.5315  2.00557243 75782
1 36585U 10022A   20276.39675545 -.00000025  00000-0  00000-0 0  9991
2 36585  55.2347 292.6196 0089609  52.4736 309.4757  2.00557290 75804
1 36585U 10022A   20276.60638562 -.00000025  00000-0  00000+0 0  9992
2 36585  55.2345 292.6111 0089613  52.4788 100.8293  2.00557302 75791
1 36585U 10022A   20277.53257398 -.00000022  00000-0  00000-0 0  9997
2 36585  55.2339 292.5740 0089635  52.4742  49.5678  2.00557355 75812
1 36585U 10022A   20277.53257398 -.00000022  00000-0  00000-0 0  9997
2 36585  55.2339 292.5740 0089635  52.4742  49.5678  2.00557355 75823
1 36585U 10022A   20280.62368756  .00000000  00000-0  00000+0 0  9996
2 36585  55.2317 292.4498 0089714  52.4575 121.4562  2.00557497 75874
1 36585U 10022A   20280.88310747  .00000003  00000-0  00000-0 0  9995
2 36585  55.2316 292.4394 0089718  52.4507 308.7717  2.00557507 75882
1 36585U 10022A   20280.88310747  .00000003  00000-0  00000-0 0  9995
2 36585  55.2316 292.4394 0089718  52.4507 308.7717  2.00557507 75893
1 36585U 10022A   20284.59930894  .00000024  00000-0  00000+0 0  9990
2 36585  55.2290 292.2900 0089844  52.4249 112.0025  2.00557614 75952
1 36585U 10022A   20286.35814750  .00000021  00000-0  00000-0 0  9996
2 36585  55.2278 292.2193 0089896  52.4019 301.9589  2.00557667 75990
1 36585U 10022A   20287.61268481  .00000013  00000-0  00000-0 0  9991
2 36585  55.2269 292.1689 0089932  52.3972 127.7768  2.00557708 76010
1 36585U 10022A   20287.61268481  .00000013  00000-0  00000-0 0  9991
2 36585  55.2269 292.1689 0089932  52.3972 127.7768  2.00557708 76021
1 36585U 10022A   20290.59414446 -.00000012  00000-0  00000-0 0  9996
2 36585  55.2247 292.0490 0090047  52.3633 120.5146  2.00557830 76071
1 36585U 10022A   20291.59406878 -.00000017  00000-0  00000-0 0  9992
2 36585  55.2240 292.0087 0090080  52.3620 122.4918  2.00557882 76108
1 36585U 10022A   20292.09911272 -.00000018  00000-0  00000-0 0  9998
2 36585  55.2236 291.9884 0090101  52.3574 127.1536  2.00557908 76105
1 36585U 10022A   20292.59398840 -.00000019  00000-0  00000-0 0  9994
2 36585  55.2233 291.9685 0090124  52.3497 124.4767  2.00557935 76117
1 36585U 10022A   20292.59398840 -.00000019  00000-0  00000-0 0  9994
2 36585  55.2233 291.9685 0090124  52.3497 124.4767  2.00557935 76128
1 36585U 10022A   20293.59215615 -.00000017  00000-0  00000-0 0  9991
2 36585  55.2226 291.9283 0090173  52.3345 125.1997  2.00557995 76130
1 36585U 10022A   20294.34207740 -.00000015  00000-0  00000-0 0  9993
2 36585  55.2221 291.8981 0090193  52.3308 306.6697  2.00558044 76151
1 36585U 10022A   20296.58546669 -.00000010  00000-0  00000+0 0  9991
2 36585  55.2204 291.8080 0090285  52.3145 126.4833  2.00558201 76192
1 36585U 10022A   20298.82846939 -.00000016  00000-0  00000+0 0  9999
2 36585  55.2188 291.7178 0090365  52.2984 306.0184  2.00558368 76244
1 36585U 10022A   20298.82846939 -.00000016  00000-0  00000-0 0  9990
2 36585  55.2188 291.7178 0090365  52.2984 306.0184  2.00558368 76244
1 36585U 10022A   20299.83351494 -.00000022  00000-0  00000-0 0  9996
2 36585  55.2181 291.6775 0090415  52.2865 311.7056  2.00558443 76260
1 36585U 10022A   20299.83351494 -.00000022  00000-0  00000-0 0  9996
2 36585  55.2181 291.6775 0090415  52.2865 311.7056  2.00558443 76271
1 36585U 10022A   20301.05449859 -.00000031  00000-0  00000-0 0  9997
2 36585  55.2173 291.6284 0090518  52.2549 113.3271  2.00558531 76284
1 36585U 10022A   20303.31479295 -.00000042  00000-0  00000+0 0  9996
2 36585  55.2157 291.5376 0090618  52.2496 305.3388  2.00558681 76333
1 36585U 10022A   20303.54815090 -.00000043  00000-0  00000-0 0  9990
2 36585  55.2156 291.5283 0090582  52.2815 113.7991  2.00558696 76331
1 36585U 10022A   20303.54815090 -.00000043  00000-0  00000-0 0  9990
2 36585  55.2156 291.5283 0090582  52.2815 113.7991  2.00558696 76342
1 36585U 10022A   20305.55816510 -.00000037  00000-0  00000+0 0  9993
2 36585  55.2141 291.4477 0090663  52.2785 125.0990  2.00558810 76372
1 36585U 10022A   20306.54748000 -.00000030  00000-0  00000-0 0  9995
2 36585  55.2135 291.4080 0090719  52.2677 119.4284  2.00558859 76395
1 36585U 10022A   20306.54748000 -.00000030  00000-0  00000-0 0  9995
2 36585  55.2135 291.4080 0090719  52.2677 119.4284  2.00558859 76407
1 36585U 10022A   20308.54852715 -.00000014  00000-0  00000-0 0  9998
2 36585  55.2121 291.3276 0090788  52.2742 124.2456  2.00558940 76436
1 36585U 10022A   20309.54837740 -.00000006  00000-0  00000-0 0  9991
2 36585  55.2115 291.2874 0090792  52.2943 126.1516  2.00558976 76460
1 36585U 10022A   20310.52219271  .00000000  00000-0  00000-0 0  9997
2 36585  55.2108 291.2483 0090851  52.2857 109.2881  2.00559004 76479
1 36585U 10022A   20310.52219271  .00000000  00000-0  00000-0 0  9997
2 36585  55.2108 291.2483 0090851  52.2857 109.2881  2.00559004 76480
1 36585U 10022A   20311.56917726  .00000004  00000-0  00000-0 0  9996
2 36585  55.2099 291.2063 0090960  52.2628 145.2696  2.00559027 76490
1 36585U 10022A   20311.56917726  .00000004  00000-0  00000-0 0  9996
2 36585  55.2099 291.2063 0090960  52.2628 145.2696  2.00559027 76502
1 36585U 10022A   20312.52481172  .00000004  00000-0  00000-0 0  9994
2 36585  55.2085 291.1678 0091019  52.2613 115.2722  2.00559051 76524
1 36585U 10022A   20315.53584595 -.00000013  00000+0  00000+0 0  9990
2 36585  55.2056 291.0469 0091156  52.2367 129.3687  2.00559149 76587
1 36585U 10022A   20316.02418965 -.00000017  00000+0  00000+0 0  9996
2 36585  55.2056 291.0273 0091172  52.2343 121.9725  2.00559167 76594
1 36585U 10022A   20318.01785781 -.00000033  00000-0  00000-0 0  9990
2 36585  55.2041 290.9471 0091263  52.2252 121.4807  2.00559252 76632
1 36585U 10022A   20320.02215878 -.00000039  00000-0  00000-0 0  9995
2 36585  55.2027 290.8666 0091409  52.2157 128.6670  2.00559349 76664
1 36585U 10022A   20320.02215878 -.00000039  00000-0  00000-0 0  9995
2 36585  55.2027 290.8666 0091409  52.2157 128.6670  2.00559349 76675
1 36585U 10022A   20322.26511887 -.00000034  00000-0  00000+0 0  9996
2 36585  55.2008 290.7763 0091524  52.2089 308.1721  2.00559494 76711
1 36585U 10022A   20322.26511887 -.00000034  00000-0  00000-0 0  9997
2 36585  55.2008 290.7763 0091524  52.2089 308.1721  2.00559494 76711
1 36585U 10022A   20324.40134198 -.00000030  00000-0  00000+0 0  9996
2 36585  55.1999 290.6905 0091630  52.2106  50.6018  2.00559647 76756
1 36585U 10022A   20324.40134198 -.00000030  00000-0  00000-0 0  9997
2 36585  55.1999 290.6905 0091630  52.2106  50.6018  2.00559647 76756
1 36585U 10022A   20326.75150351 -.00000041  00000-0  00000+0 0  9997
2 36585  55.1981 290.5961 0091734  52.2101 307.5059  2.00559815 76800
1 36585U 10022A   20327.25466263 -.00000045  00000-0  00000-0 0  9990
2 36585  55.1977 290.5759 0091758  52.2115 310.8042  2.00559852 76812
1 36585U 10022A   20327.25466263 -.00000045  00000-0  00000-0 0  9990
2 36585  55.1977 290.5759 0091758  52.2115 310.8042  2.00559852 76823
1 36585U 10022A   20328.99486142 -.00000058  00000-0  00000-0 0  9994
2 36585  55.1964 290.5060 0091865  52.2184 127.2866  2.00559977 76843
1 36585U 10022A   20328.99486142 -.00000058  00000-0  00000-0 0  9994
2 36585  55.1964 290.5060 0091865  52.2184 127.2866  2.00559977 76854
1 36585U 10022A   20330.48367656 -.00000064  00000-0  00000-0 0  9996
2 36585  55.1951 290.4463 0091908  52.2349 122.2509  2.00560072 76876
1 36585U 10022A   20331.47936111 -.00000064  00000-0  00000-0 0  9994
2 36585  55.1944 290.4064 0091980  52.2369 121.1714  2.00560138 76898
1 36585U 10022A   20332.24289036 -.00000061  00000-0  00000-0 0  9994
2 36585  55.1939 290.3757 0092010  52.2387 312.4669  2.00560181 76910
1 36585U 10022A   20332.24289036 -.00000061  00000-0  00000-0 0  9994
2 36585  55.1939 290.3757 0092010  52.2387 312.4669  2.00560181 76921
1 36585U 10022A   20333.48115209 -.00000054  00000-0  00000-0 0  9993
2 36585  55.1930 290.3261 0092084  52.2398 126.5386  2.00560248 76941
1 36585U 10022A   20334.47993293 -.00000045  00000-0  00000+0 0  9999
2 36585  55.1924 290.2861 0092142  52.2433 127.6936  2.00560295 76950
1 36585U 10022A   20334.47993293 -.00000045  00000-0  00000-0 0  9990
2 36585  55.1924 290.2861 0092142  52.2433 127.6936  2.00560295 76950
1 36585U 10022A   20335.72418926 -.00000034  00000-0  00000-0 0  9992
2 36585  55.1915 290.2361 0092215  52.2483 306.0903  2.00560345 76987
1 36585U 10022A   20336.72911083 -.00000025  00000-0  00000-0 0  9995
2 36585  55.1907 290.1957 0092274  52.2507 311.6807  2.00560381 77010
1 36585U 10022A   20337.96738184 -.00000017  00000-0  00000-0 0  9992
2 36585  55.1897 290.1460 0092351  52.2584 125.7535  2.00560422 77038
1 36585U 10022A   20339.46620021 -.00000013  00000-0  00000-0 0  9995
2 36585  55.1885 290.0859 0092435  52.2635 127.9547  2.00560465 77063
1 36585U 10022A   20340.21033801 -.00000013  00000-0  00000-0 0  9994
2 36585  55.1879 290.0560 0092477  52.2646 305.2506  2.00560485 77072
1 36585U 10022A   20340.45050344 -.00000014  00000-0  00000+0 0  9991
2 36585  55.1877 290.0464 0092506  52.2659 118.6585  2.00560494 77073
